[{"OBJECT_NAME":"STARLINK-30360","OBJECT_ID":"2023-134F","EPOCH":"2026-03-09T10:15:23.943744","MEAN_MOTION":15.26742217,"ECCENTRICITY":0.00011889,"INCLINATION":42.998,"RA_OF_ASC_NODE":196.2238,"ARG_OF_PERICENTER":219.3661,"MEAN_ANOMALY":140.7104,"EPHEMERIS_TYPE":0,"CLASSIFICATION_TYPE":"U","NORAD_CAT_ID":57776,"ELEMENT_SET_NO":999,"REV_AT_EPOCH":13946,"BSTAR":9.408504e-6,"MEAN_MOTION_DOT":-7.0e-8,"MEAN_MOTION_DDOT":0},{"OBJECT_NAME":"TROLL","OBJECT_ID":"2025-009BB","EPOCH":"2026-03-09T05:24:19.835712","MEAN_MOTION":15.28164315,"ECCENTRICITY":0.00018165,"INCLINATION":97.3932,"RA_OF_ASC_NODE":150.7169,"ARG_OF_PERICENTER":59.185,"MEAN_ANOMALY":300.9568,"EPHEMERIS_TYPE":0,"CLASSIFICATION_TYPE":"U","NORAD_CAT_ID":62658,"ELEMENT_SET_NO":999,"REV_AT_EPOCH":11817,"BSTAR":0.00048220305,"MEAN_MOTION_DOT":0.00013174,"MEAN_MOTION_DDOT":0}]
