STARLINK-30360          
1 57776U 23134F   26068.42736046 -.00000007  00000+0  94085-5 0  9997
2 57776  42.9980 196.2238 0001188 219.3661 140.7104 15.26742217139460
TROLL                   
1 62658U 25009BB  26068.22522958  .00013174  00000+0  48220-3 0  9994
2 62658  97.3932 150.7169 0001816  59.1850 300.9568 15.28164315118170
